[{"OBJECT_NAME":"STARLINK-4181","OBJECT_ID":"2022-062BE","EPOCH":"2026-03-09T03:23:04.055424","MEAN_MOTION":15.08833838,"ECCENTRICITY":0.00014123,"INCLINATION":53.2185,"RA_OF_ASC_NODE":16.1555,"ARG_OF_PERICENTER":94.8856,"MEAN_ANOMALY":265.2298,"EPHEMERIS_TYPE":0,"CLASSIFICATION_TYPE":"U","NORAD_CAT_ID":52882,"ELEMENT_SET_NO":999,"REV_AT_EPOCH":20599,"BSTAR":-0.00021239346,"MEAN_MOTION_DOT":-3.666e-5,"MEAN_MOTION_DDOT":0},{"OBJECT_NAME":"FALCON 9 DEB","OBJECT_ID":"2021-041BL","EPOCH":"2026-03-09T15:17:24.182016","MEAN_MOTION":15.12006404,"ECCENTRICITY":0.0011978,"INCLINATION":53.0274,"RA_OF_ASC_NODE":188.0035,"ARG_OF_PERICENTER":181.8726,"MEAN_ANOMALY":178.2223,"EPHEMERIS_TYPE":0,"CLASSIFICATION_TYPE":"U","NORAD_CAT_ID":48837,"ELEMENT_SET_NO":999,"REV_AT_EPOCH":26181,"BSTAR":0.00029601,"MEAN_MOTION_DOT":4.852e-5,"MEAN_MOTION_DDOT":0}]
